{
  "type": "FeatureCollection",
  "features": [
    {
      "type": "Feature",
      "properties": {
        "norad_id": 33412,
        "name": "COSMO-SKYMED 3",
        "group": "resource",
        "lat": -23.77830104713914,
        "lon": 14.153415690757779,
        "alt_km": 546.4995703396853,
        "timestamp": "2025-12-13T05:42:57.153732+00:00",
        "meta_object_name": "COSMO-SKYMED 3",
        "meta_object_id": "2008-054A",
        "meta_epoch": "2025-12-12T08:04:28.051392",
        "meta_mean_motion": 15.05351284,
        "meta_eccentricity": 0.00160172,
        "meta_inclination": 97.8473,
        "meta_ra_of_asc_node": 196.7206,
        "meta_arg_of_pericenter": 175.1779,
        "meta_mean_anomaly": 184.9604,
        "meta_ephemeris_type": 0,
        "meta_classification_type": "U",
        "meta_norad_cat_id": 33412,
        "meta_element_set_no": 999,
        "meta_rev_at_epoch": 92881,
        "meta_bstar": 0.00056296653,
        "meta_mean_motion_dot": 8.025e-05,
        "meta_mean_motion_ddot": 0,
        "tle_line1": "1 33412U 08054A   25346.33643578  .00008025  00000+0  56297-3 0  9995",
        "tle_line2": "2 33412  97.8473 196.7206 0016017 175.1779 184.9604 15.05351284928810"
      },
      "geometry": {
        "type": "Point",
        "coordinates": [
          14.153415690757779,
          -23.77830104713914
        ]
      }
    },
    {
      "type": "Feature",
      "properties": {
        "norad_id": 33446,
        "name": "YAOGAN-4",
        "group": "resource",
        "lat": 35.047941204483145,
        "lon": 102.93492619947223,
        "alt_km": 628.0638170200191,
        "timestamp": "2025-12-13T05:42:57.153743+00:00",
        "meta_object_name": "YAOGAN-4",
        "meta_object_id": "2008-061A",
        "meta_epoch": "2025-12-12T06:23:25.930176",
        "meta_mean_motion": 14.82680249,
        "meta_eccentricity": 0.00135971,
        "meta_inclination": 97.918,
        "meta_ra_of_asc_node": 276.3703,
        "meta_arg_of_pericenter": 325.0698,
        "meta_mean_anomaly": 34.9622,
        "meta_ephemeris_type": 0,
        "meta_classification_type": "U",
        "meta_norad_cat_id": 33446,
        "meta_element_set_no": 999,
        "meta_rev_at_epoch": 91796,
        "meta_bstar": 0.00029483292,
        "meta_mean_motion_dot": 2.328e-05,
        "meta_mean_motion_ddot": 0,
        "tle_line1": "1 33446U 08061A   25346.26627234  .00002328  00000+0  29483-3 0  9990",
        "tle_line2": "2 33446  97.9180 276.3703 0013597 325.0698  34.9622 14.82680249917964"
      },
      "geometry": {
        "type": "Point",
        "coordinates": [
          102.93492619947223,
          35.047941204483145
        ]
      }
    },
    {
      "type": "Feature",
      "properties": {
        "norad_id": 33492,
        "name": "GOSAT (IBUKI)",
        "group": "resource",
        "lat": 10.339598649610581,
        "lon": -82.68116350373212,
        "alt_km": 670.3354759783388,
        "timestamp": "2025-12-13T05:42:57.153754+00:00",
        "meta_object_name": "GOSAT (IBUKI)",
        "meta_object_id": "2009-002A",
        "meta_epoch": "2025-12-12T06:02:14.620704",
        "meta_mean_motion": 14.67553692,
        "meta_eccentricity": 9.341e-05,
        "meta_inclination": 98.0768,
        "meta_ra_of_asc_node": 94.8616,
        "meta_arg_of_pericenter": 91.2594,
        "meta_mean_anomaly": 268.8717,
        "meta_ephemeris_type": 0,
        "meta_classification_type": "U",
        "meta_norad_cat_id": 33492,
        "meta_element_set_no": 999,
        "meta_rev_at_epoch": 90404,
        "meta_bstar": 0.00026039296,
        "meta_mean_motion_dot": 1.429e-05,
        "meta_mean_motion_ddot": 0,
        "tle_line1": "1 33492U 09002A   25346.25155811  .00001429  00000+0  26039-3 0  9998",
        "tle_line2": "2 33492  98.0768  94.8616 0000934  91.2594 268.8717 14.67553692904045"
      },
      "geometry": {
        "type": "Point",
        "coordinates": [
          -82.68116350373212,
          10.339598649610581
        ]
      }
    },
    {
      "type": "Feature",
      "properties": {
        "norad_id": 35681,
        "name": "DEIMOS-1",
        "group": "resource",
        "lat": -77.7569579929846,
        "lon": -70.84514418729363,
        "alt_km": 654.5564100460188,
        "timestamp": "2025-12-13T05:42:57.153765+00:00",
        "meta_object_name": "DEIMOS-1",
        "meta_object_id": "2009-041A",
        "meta_epoch": "2025-12-12T07:22:21.170208",
        "meta_mean_motion": 14.74952732,
        "meta_eccentricity": 0.0002735,
        "meta_inclination": 97.7151,
        "meta_ra_of_asc_node": 146.9305,
        "meta_arg_of_pericenter": 80.3247,
        "meta_mean_anomaly": 279.8271,
        "meta_ephemeris_type": 0,
        "meta_classification_type": "U",
        "meta_norad_cat_id": 35681,
        "meta_element_set_no": 999,
        "meta_rev_at_epoch": 87933,
        "meta_bstar": 0.00021935524,
        "meta_mean_motion_dot": 1.427e-05,
        "meta_mean_motion_ddot": 0,
        "tle_line1": "1 35681U 09041A   25346.30718947  .00001427  00000+0  21936-3 0  9993",
        "tle_line2": "2 35681  97.7151 146.9305 0002735  80.3247 279.8271 14.74952732879334"
      },
      "geometry": {
        "type": "Point",
        "coordinates": [
          -70.84514418729363,
          -77.7569579929846
        ]
      }
    },
    {
      "type": "Feature",
      "properties": {
        "norad_id": 35682,
        "name": "DUBAISAT-1",
        "group": "resource",
        "lat": -14.574840185594061,
        "lon": -64.17982019770751,
        "alt_km": 654.3085582246758,
        "timestamp": "2025-12-13T05:42:57.153776+00:00",
        "meta_object_name": "DUBAISAT-1",
        "meta_object_id": "2009-041B",
        "meta_epoch": "2025-12-12T07:39:51.509088",
        "meta_mean_motion": 14.7460272,
        "meta_eccentricity": 0.00095794,
        "meta_inclination": 97.9784,
        "meta_ra_of_asc_node": 117.0051,
        "meta_arg_of_pericenter": 316.111,
        "meta_mean_anomaly": 43.9337,
        "meta_ephemeris_type": 0,
        "meta_classification_type": "U",
        "meta_norad_cat_id": 35682,
        "meta_element_set_no": 999,
        "meta_rev_at_epoch": 87755,
        "meta_bstar": 0.00034185309,
        "meta_mean_motion_dot": 2.23e-05,
        "meta_mean_motion_ddot": 0,
        "tle_line1": "1 35682U 09041B   25346.31934617  .00002230  00000+0  34185-3 0  9992",
        "tle_line2": "2 35682  97.9784 117.0051 0009579 316.1110  43.9337 14.74602720877552"
      },
      "geometry": {
        "type": "Point",
        "coordinates": [
          -64.17982019770751,
          -14.574840185594061
        ]
      }
    },
    {
      "type": "Feature",
      "properties": {
        "norad_id": 35931,
        "name": "OCEANSAT-2",
        "group": "resource",
        "lat": -56.994644821016244,
        "lon": 154.92625690014123,
        "alt_km": 913.589936134771,
        "timestamp": "2025-12-13T05:42:57.153788+00:00",
        "meta_object_name": "OCEANSAT-2",
        "meta_object_id": "2009-051A",
        "meta_epoch": "2025-12-12T07:59:41.204256",
        "meta_mean_motion": 13.99624784,
        "meta_eccentricity": 0.00162336,
        "meta_inclination": 98.2223,
        "meta_ra_of_asc_node": 346.975,
        "meta_arg_of_pericenter": 46.1224,
        "meta_mean_anomaly": 314.128,
        "meta_ephemeris_type": 0,
        "meta_classification_type": "U",
        "meta_norad_cat_id": 35931,
        "meta_element_set_no": 999,
        "meta_rev_at_epoch": 85319,
        "meta_bstar": -6.3208134e-05,
        "meta_mean_motion_dot": -1.3e-06,
        "meta_mean_motion_ddot": 0,
        "tle_line1": "1 35931U 09051A   25346.33311579 -.00000130  00000+0 -63208-4 0  9996",
        "tle_line2": "2 35931  98.2223 346.9750 0016233  46.1224 314.1280 13.99624784853195"
      },
      "geometry": {
        "type": "Point",
        "coordinates": [
          154.92625690014123,
          -56.994644821016244
        ]
      }
    },
    {
      "type": "Feature",
      "properties": {
        "norad_id": 35946,
        "name": "WORLDVIEW-2 (WV-2)",
        "group": "resource",
        "lat": 65.93901436364571,
        "lon": 38.798243694322494,
        "alt_km": 755.9005000212092,
        "timestamp": "2025-12-13T05:42:57.153800+00:00",
        "meta_object_name": "WORLDVIEW-2 (WV-2)",
        "meta_object_id": "2009-055A",
        "meta_epoch": "2025-12-12T06:01:12.055872",
        "meta_mean_motion": 14.37723682,
        "meta_eccentricity": 0.00051464,
        "meta_inclination": 98.479,
        "meta_ra_of_asc_node": 57.3417,
        "meta_arg_of_pericenter": 72.0711,
        "meta_mean_anomaly": 288.1037,
        "meta_ephemeris_type": 0,
        "meta_classification_type": "U",
        "meta_norad_cat_id": 35946,
        "meta_element_set_no": 999,
        "meta_rev_at_epoch": 84878,
        "meta_bstar": 0.00010703421,
        "meta_mean_motion_dot": 2.78e-06,
        "meta_mean_motion_ddot": 0,
        "tle_line1": "1 35946U 09055A   25346.25083398  .00000278  00000+0  10703-3 0  9994",
        "tle_line2": "2 35946  98.4790  57.3417 0005146  72.0711 288.1037 14.37723682848784"
      },
      "geometry": {
        "type": "Point",
        "coordinates": [
          38.798243694322494,
          65.93901436364571
        ]
      }
    }
  ]
}